{
  "type": "FeatureCollection",
  "features": [
    {
      "type": "Feature",
      "properties": {
        "norad_id": 66174,
        "name": "HTV-X1",
        "group": "stations",
        "lat": 8.407201234367097,
        "lon": -39.89961239238766,
        "alt_km": 416.85989117375357,
        "timestamp": "2025-12-11T20:41:13.867872+00:00",
        "meta_object_name": "HTV-X1",
        "meta_object_id": "2025-241A",
        "meta_epoch": "2025-12-11T12:13:14.837664",
        "meta_mean_motion": 15.49508857,
        "meta_eccentricity": 0.00033166,
        "meta_inclination": 51.6308,
        "meta_ra_of_asc_node": 148.5724,
        "meta_arg_of_pericenter": 235.7177,
        "meta_mean_anomaly": 124.3498,
        "meta_ephemeris_type": 0,
        "meta_classification_type": "U",
        "meta_norad_cat_id": 66174,
        "meta_element_set_no": 999,
        "meta_rev_at_epoch": 51,
        "meta_bstar": 0.00026544961,
        "meta_mean_motion_dot": 0.00014464,
        "meta_mean_motion_ddot": 0,
        "tle_line1": "1 66174U 25241A   25345.50919951  .00014464  00000+0  26545-3 0  9999",
        "tle_line2": "2 66174  51.6308 148.5724 0003316 235.7177 124.3498 15.49508857   514"
      },
      "geometry": {
        "type": "Point",
        "coordinates": [
          -39.89961239238766,
          8.407201234367097
        ]
      }
    },
    {
      "type": "Feature",
      "properties": {
        "norad_id": 66515,
        "name": "SZ-21 MODULE",
        "group": "stations",
        "lat": 21.992704416676172,
        "lon": 174.1933817179193,
        "alt_km": 378.5152346084833,
        "timestamp": "2025-12-11T20:41:13.867882+00:00",
        "meta_object_name": "SZ-21 MODULE",
        "meta_object_id": "2025-246C",
        "meta_epoch": "2025-12-11T12:23:47.617440",
        "meta_mean_motion": 15.62393058,
        "meta_eccentricity": 0.00063024,
        "meta_inclination": 41.4773,
        "meta_ra_of_asc_node": 23.5075,
        "meta_arg_of_pericenter": 253.7333,
        "meta_mean_anomaly": 106.2813,
        "meta_ephemeris_type": 0,
        "meta_classification_type": "U",
        "meta_norad_cat_id": 66515,
        "meta_element_set_no": 999,
        "meta_rev_at_epoch": 425,
        "meta_bstar": 0.00046258705,
        "meta_mean_motion_dot": 0.00042118,
        "meta_mean_motion_ddot": 0,
        "tle_line1": "1 66515U 25246C   25345.51652335  .00042118  00000+0  46259-3 0  9995",
        "tle_line2": "2 66515  41.4773  23.5075 0006302 253.7333 106.2813 15.62393058  4254"
      },
      "geometry": {
        "type": "Point",
        "coordinates": [
          174.1933817179193,
          21.992704416676172
        ]
      }
    },
    {
      "type": "Feature",
      "properties": {
        "norad_id": 66645,
        "name": "SHENZHOU-22",
        "group": "stations",
        "lat": -37.76148317102581,
        "lon": -96.66564530385247,
        "alt_km": 397.25337926561133,
        "timestamp": "2025-12-11T20:41:13.867892+00:00",
        "meta_object_name": "SHENZHOU-22",
        "meta_object_id": "2025-272A",
        "meta_epoch": "2025-12-11T11:56:35.385792",
        "meta_mean_motion": 15.59100786,
        "meta_eccentricity": 0.00085964,
        "meta_inclination": 41.4684,
        "meta_ra_of_asc_node": 24.2481,
        "meta_arg_of_pericenter": 20.0947,
        "meta_mean_anomaly": 340.0228,
        "meta_ephemeris_type": 0,
        "meta_classification_type": "U",
        "meta_norad_cat_id": 66645,
        "meta_element_set_no": 999,
        "meta_rev_at_epoch": 26357,
        "meta_bstar": 0.00045432813,
        "meta_mean_motion_dot": 0.00036404,
        "meta_mean_motion_ddot": 0,
        "tle_line1": "1 66645U 25272A   25345.49763178  .00036404  00000+0  45433-3 0  9997",
        "tle_line2": "2 66645  41.4684  24.2481 0008596  20.0947 340.0228 15.59100786263571"
      },
      "geometry": {
        "type": "Point",
        "coordinates": [
          -96.66564530385247,
          -37.76148317102581
        ]
      }
    },
    {
      "type": "Feature",
      "properties": {
        "norad_id": 66664,
        "name": "SOYUZ-MS 28",
        "group": "stations",
        "lat": 8.407199724580872,
        "lon": -39.89961116333608,
        "alt_km": 416.8598913227379,
        "timestamp": "2025-12-11T20:41:13.867902+00:00",
        "meta_object_name": "SOYUZ-MS 28",
        "meta_object_id": "2025-275A",
        "meta_epoch": "2025-12-11T12:13:14.837664",
        "meta_mean_motion": 15.49508857,
        "meta_eccentricity": 0.00033166,
        "meta_inclination": 51.6308,
        "meta_ra_of_asc_node": 148.5724,
        "meta_arg_of_pericenter": 235.7177,
        "meta_mean_anomaly": 124.3498,
        "meta_ephemeris_type": 0,
        "meta_classification_type": "U",
        "meta_norad_cat_id": 66664,
        "meta_element_set_no": 999,
        "meta_rev_at_epoch": 128,
        "meta_bstar": 0.00026544961,
        "meta_mean_motion_dot": 0.00014464,
        "meta_mean_motion_ddot": 0,
        "tle_line1": "1 66664U 25275A   25345.50919951  .00014464  00000+0  26545-3 0  9990",
        "tle_line2": "2 66664  51.6308 148.5724 0003316 235.7177 124.3498 15.49508857  1283"
      },
      "geometry": {
        "type": "Point",
        "coordinates": [
          -39.89961116333608,
          8.407199724580872
        ]
      }
    },
    {
      "type": "Feature",
      "properties": {
        "norad_id": 66906,
        "name": "1998-067XS",
        "group": "stations",
        "lat": -12.188069271588596,
        "lon": -23.376925139386223,
        "alt_km": 414.92184463765625,
        "timestamp": "2025-12-11T20:41:13.867912+00:00",
        "meta_object_name": "1998-067XS",
        "meta_object_id": "1998-067XS",
        "meta_epoch": "2025-12-11T04:22:42.253536",
        "meta_mean_motion": 15.50439588,
        "meta_eccentricity": 0.00037466,
        "meta_inclination": 51.6302,
        "meta_ra_of_asc_node": 150.1407,
        "meta_arg_of_pericenter": 195.2111,
        "meta_mean_anomaly": 164.8766,
        "meta_ephemeris_type": 0,
        "meta_classification_type": "U",
        "meta_norad_cat_id": 66906,
        "meta_element_set_no": 999,
        "meta_rev_at_epoch": 137,
        "meta_bstar": 0.00067409178,
        "meta_mean_motion_dot": 0.00038814,
        "meta_mean_motion_ddot": 0,
        "tle_line1": "1 66906U 98067XS  25345.18243349  .00038814  00000+0  67409-3 0  9992",
        "tle_line2": "2 66906  51.6302 150.1407 0003746 195.2111 164.8766 15.50439588  1371"
      },
      "geometry": {
        "type": "Point",
        "coordinates": [
          -23.376925139386223,
          -12.188069271588596
        ]
      }
    },
    {
      "type": "Feature",
      "properties": {
        "norad_id": 66907,
        "name": "1998-067XT",
        "group": "stations",
        "lat": -21.57442171193202,
        "lon": -15.00192341422039,
        "alt_km": 413.01265270498607,
        "timestamp": "2025-12-11T20:41:13.867922+00:00",
        "meta_object_name": "1998-067XT",
        "meta_object_id": "1998-067XT",
        "meta_epoch": "2025-12-09T12:07:37.114752",
        "meta_mean_motion": 15.50864429,
        "meta_eccentricity": 0.00048036,
        "meta_inclination": 51.6307,
        "meta_ra_of_asc_node": 158.4423,
        "meta_arg_of_pericenter": 208.5081,
        "meta_mean_anomaly": 151.5646,
        "meta_ephemeris_type": 0,
        "meta_classification_type": "U",
        "meta_norad_cat_id": 66907,
        "meta_element_set_no": 999,
        "meta_rev_at_epoch": 111,
        "meta_bstar": 0.0012921241,
        "meta_mean_motion_dot": 0.00076342,
        "meta_mean_motion_ddot": 0,
        "tle_line1": "1 66907U 98067XT  25343.50529068  .00076342  00000+0  12921-2 0  9998",
        "tle_line2": "2 66907  51.6307 158.4423 0004803 208.5081 151.5646 15.50864429  1113"
      },
      "geometry": {
        "type": "Point",
        "coordinates": [
          -15.00192341422039,
          -21.57442171193202
        ]
      }
    },
    {
      "type": "Feature",
      "properties": {
        "norad_id": 66908,
        "name": "1998-067XU",
        "group": "stations",
        "lat": -22.87071957074562,
        "lon": -13.736662177687679,
        "alt_km": 412.7960993420684,
        "timestamp": "2025-12-11T20:41:13.867932+00:00",
        "meta_object_name": "1998-067XU",
        "meta_object_id": "1998-067XU",
        "meta_epoch": "2025-12-10T15:57:23.331168",
        "meta_mean_motion": 15.51115637,
        "meta_eccentricity": 0.00048129,
        "meta_inclination": 51.6304,
        "meta_ra_of_asc_node": 152.6848,
        "meta_arg_of_pericenter": 213.5482,
        "meta_mean_anomaly": 146.5203,
        "meta_ephemeris_type": 0,
        "meta_classification_type": "U",
        "meta_norad_cat_id": 66908,
        "meta_element_set_no": 999,
        "meta_rev_at_epoch": 129,
        "meta_bstar": 0.0014713865,
        "meta_mean_motion_dot": 0.00087912,
        "meta_mean_motion_ddot": 0,
        "tle_line1": "1 66908U 98067XU  25344.66485337  .00087912  00000+0  14714-2 0  9994",
        "tle_line2": "2 66908  51.6304 152.6848 0004812 213.5482 146.5203 15.51115637  1292"
      },
      "geometry": {
        "type": "Point",
        "coordinates": [
          -13.736662177687679,
          -22.87071957074562
        ]
      }
    }
  ]
}